STARLINK-4726           
1 53802U 22111AF  26068.85773229  .00000641  00000+0  58339-4 0  9992
2 53802  53.2167 263.2327 0001248  88.4404 271.6731 15.08840500193845
MUSAT-2                 
1 59099U 24043B   26068.91945897  .00010059  00000+0  67214-3 0  9996
2 59099  97.8438 205.4399 0006495 314.3478  45.7216 15.07177436110131
